QIANFAN-103             
1 66045U 25233N   26066.12412289  .00000041  00000+0  44420-4 0  9997
2 66045  88.9939  53.5080 0001931  91.5656 268.5717 13.51006248 19406
QIANFAN-104             
1 66046U 25233P   26066.20208049  .00000053  00000+0  63569-4 0  9992
2 66046  88.9944  53.3976 0002095  85.4073 274.7317 13.51010364 19467
QIANFAN-105             
1 66047U 25233Q   26066.13621800  .00000051  00000+0  59683-4 0  9999
2 66047  88.9957  53.2337 0002073  92.1044 268.0344 13.50981592 19567
QIANFAN-106             
1 66048U 25233R   26066.13230579  .00000045  00000+0  51338-4 0  9991
2 66048  88.9926  53.4791 0002389  85.2560 274.8864 13.51005284 19418
QIANFAN-107             
1 66049U 25233S   26066.14056732  .00000044  00000+0  50014-4 0  9999
2 66049  88.9942  53.4945 0001962  90.7539 269.3837 13.51003307 19414
QIANFAN-108             
1 66050U 25233T   26066.14466998  .00000039  00000+0  41438-4 0  9994
2 66050  88.9935  53.4891 0002349  84.8319 275.3101 13.51004794 19410
