[{"OBJECT_NAME":"QIANFAN-103","OBJECT_ID":"2025-233N","EPOCH":"2026-03-07T02:58:44.217696","MEAN_MOTION":13.51006248,"ECCENTRICITY":0.0001931,"INCLINATION":88.9939,"RA_OF_ASC_NODE":53.508,"ARG_OF_PERICENTER":91.5656,"MEAN_ANOMALY":268.5717,"EPHEMERIS_TYPE":0,"CLASSIFICATION_TYPE":"U","NORAD_CAT_ID":66045,"ELEMENT_SET_NO":999,"REV_AT_EPOCH":1940,"BSTAR":4.442e-5,"MEAN_MOTION_DOT":4.1e-7,"MEAN_MOTION_DDOT":0},{"OBJECT_NAME":"QIANFAN-104","OBJECT_ID":"2025-233P","EPOCH":"2026-03-07T04:50:59.754336","MEAN_MOTION":13.51010364,"ECCENTRICITY":0.0002095,"INCLINATION":88.9944,"RA_OF_ASC_NODE":53.3976,"ARG_OF_PERICENTER":85.4073,"MEAN_ANOMALY":274.7317,"EPHEMERIS_TYPE":0,"CLASSIFICATION_TYPE":"U","NORAD_CAT_ID":66046,"ELEMENT_SET_NO":999,"REV_AT_EPOCH":1946,"BSTAR":6.3569e-5,"MEAN_MOTION_DOT":5.3e-7,"MEAN_MOTION_DDOT":0},{"OBJECT_NAME":"QIANFAN-105","OBJECT_ID":"2025-233Q","EPOCH":"2026-03-07T03:16:09.235200","MEAN_MOTION":13.50981592,"ECCENTRICITY":0.0002073,"INCLINATION":88.9957,"RA_OF_ASC_NODE":53.2337,"ARG_OF_PERICENTER":92.1044,"MEAN_ANOMALY":268.0344,"EPHEMERIS_TYPE":0,"CLASSIFICATION_TYPE":"U","NORAD_CAT_ID":66047,"ELEMENT_SET_NO":999,"REV_AT_EPOCH":1956,"BSTAR":5.9683e-5,"MEAN_MOTION_DOT":5.1e-7,"MEAN_MOTION_DDOT":0},{"OBJECT_NAME":"QIANFAN-106","OBJECT_ID":"2025-233R","EPOCH":"2026-03-07T03:10:31.220256","MEAN_MOTION":13.51005284,"ECCENTRICITY":0.0002389,"INCLINATION":88.9926,"RA_OF_ASC_NODE":53.4791,"ARG_OF_PERICENTER":85.256,"MEAN_ANOMALY":274.8864,"EPHEMERIS_TYPE":0,"CLASSIFICATION_TYPE":"U","NORAD_CAT_ID":66048,"ELEMENT_SET_NO":999,"REV_AT_EPOCH":1941,"BSTAR":5.1338e-5,"MEAN_MOTION_DOT":4.5e-7,"MEAN_MOTION_DDOT":0},{"OBJECT_NAME":"QIANFAN-107","OBJECT_ID":"2025-233S","EPOCH":"2026-03-07T03:22:25.016448","MEAN_MOTION":13.51003307,"ECCENTRICITY":0.0001962,"INCLINATION":88.9942,"RA_OF_ASC_NODE":53.4945,"ARG_OF_PERICENTER":90.7539,"MEAN_ANOMALY":269.3837,"EPHEMERIS_TYPE":0,"CLASSIFICATION_TYPE":"U","NORAD_CAT_ID":66049,"ELEMENT_SET_NO":999,"REV_AT_EPOCH":1941,"BSTAR":5.0014e-5,"MEAN_MOTION_DOT":4.4e-7,"MEAN_MOTION_DDOT":0},{"OBJECT_NAME":"QIANFAN-108","OBJECT_ID":"2025-233T","EPOCH":"2026-03-07T03:28:19.486272","MEAN_MOTION":13.51004794,"ECCENTRICITY":0.0002349,"INCLINATION":88.9935,"RA_OF_ASC_NODE":53.4891,"ARG_OF_PERICENTER":84.8319,"MEAN_ANOMALY":275.3101,"EPHEMERIS_TYPE":0,"CLASSIFICATION_TYPE":"U","NORAD_CAT_ID":66050,"ELEMENT_SET_NO":999,"REV_AT_EPOCH":1941,"BSTAR":4.1438e-5,"MEAN_MOTION_DOT":3.9e-7,"MEAN_MOTION_DDOT":0}]
